$$SOE
2459580.500000000, A.D. 2022-Jan-01 00:00:00.0000, 2.585770169578643E+08, -1.020160889703043E+08, 9.063999518590599E+07,
2459587.500000000, A.D. 2022-Jan-08 00:00:00.0000, 2.558538018814042E+08, -8.960135105353265E+07, 9.338200042912473E+07,
2459594.500000000, A.D. 2022-Jan-15 00:00:00.0000, 2.526036670353342E+08, -7.700234100495540E+07, 9.593153291903114E+07,
2459601.500000000, A.D. 2022-Jan-22 00:00:00.0000, 2.488006592163768E+08, -6.423508721170656E+07, 9.827093457370114E+07,
2459608.500000000, A.D. 2022-Jan-29 00:00:00.0000, 2.444175925935167E+08, -5.131840031486341E+07, 1.003810491166850E+08,
2459615.500000000, A.D. 2022-Feb-05 00:00:00.0000, 2.394260996981311E+08, -3.827433142573381E+07, 1.022410985772841E+08,
2459622.500000000, A.D. 2022-Feb-12 00:00:00.0000, 2.337967351525924E+08, -2.512870248656902E+07, 1.038285605722726E+08,
2459629.500000000, A.D. 2022-Feb-19 00:00:00.0000, 2.274991485936815E+08, -1.191171420741327E+07, 1.051190526584697E+08,
2459636.500000000, A.D. 2022-Feb-26 00:00:00.0000, 2.205023482953655E+08, 1.341361092446238E+06, 1.060862325964012E+08,
2459643.500000000, A.D. 2022-Mar-05 00:00:00.0000, 2.127750845223103E+08, 1.458939719069979E+07, 1.067017270129900E+08,
2459650.500000000, A.D. 2022-Mar-12 00:00:00.0000, 2.042863887320840E+08, 2.778454316598566E+07, 1.069351059676453E+08,
2459657.500000000, A.D. 2022-Mar-19 00:00:00.0000, 1.950063122827978E+08, 4.087127344971087E+07, 1.067539273385831E+08,
2459664.500000000, A.D. 2022-Mar-26 00:00:00.0000, 1.849069158726902E+08, 5.378538113023766E+07, 1.061238828637130E+08,
2459671.500000000, A.D. 2022-Apr-02 00:00:00.0000, 1.739635670859116E+08, 6.645295646047409E+07, 1.050090869741478E+08,
2459678.500000000, A.D. 2022-Apr-09 00:00:00.0000, 1.621566056902803E+08, 7.878942052867717E+07, 1.033725596483177E+08,
2459685.500000000, A.D. 2022-Apr-16 00:00:00.0000, 1.494734304312826E+08, 9.069872249136382E+07, 1.011769640032815E+08,
2459692.500000000, A.D. 2022-Apr-23 00:00:00.0000, 1.359110395290301E+08, 1.020728570656470E+08, 9.838566555635126E+07,
2459699.500000000, A.D. 2022-Apr-30 00:00:00.0000, 1.214790150820056E+08, 1.127919109228714E+08, 9.496417807426304E+07,
2459706.500000000, A.D. 2022-May-07 00:00:00.0000, 1.062028753706291E+08, 1.227249015185287E+08, 9.088204424735570E+07,
2459713.500000000, A.D. 2022-May-14 00:00:00.0000, 9.012761018955170E+07, 1.317317150349694E+08, 8.611516101396927E+07,
2459720.500000000, A.D. 2022-May-21 00:00:00.0000, 7.332106900922410E+07, 1.396664439158069E+08, 8.064849020976716E+07,
2459727.500000000, A.D. 2022-May-28 00:00:00.0000, 5.587671328751253E+07, 1.463823432299972E+08, 7.447899235382703E+07,
2459734.500000000, A.D. 2022-Jun-04 00:00:00.0000, 3.791510628924641E+07, 1.517384383173205E+08, 6.761849381948304E+07,
2459741.500000000, A.D. 2022-Jun-11 00:00:00.0000, 1.958346007574410E+07, 1.556075088099113E+08, 6.009607174028607E+07,
2459748.500000000, A.D. 2022-Jun-18 00:00:00.0000, 1.052665420078376E+06, 1.578847791109945E+08, 5.195946315752944E+07,
2459755.500000000, A.D. 2022-Jun-25 00:00:00.0000, -1.748845248074280E+07, 1.584962591345965E+08, 4.327503098682766E+07,
2459762.500000000, A.D. 2022-Jul-02 00:00:00.0000, -3.584140007699535E+07, 1.574054496568987E+08, 3.412598869547595E+07,
2459769.500000000, A.D. 2022-Jul-09 00:00:00.0000, -5.380796705783389E+07, 1.546171982846387E+08, 2.460888847465982E+07,
2459776.500000000, A.D. 2022-Jul-16 00:00:00.0000, -7.120056501835774E+07, 1.501779206851885E+08, 1.482873888329833E+07,
2459783.500000000, A.D. 2022-Jul-23 00:00:00.0000, -8.785150272290020E+07, 1.441720916466137E+08, 4.893417094244607E+06,
2459790.500000000, A.D. 2022-Jul-30 00:00:00.0000, -1.036199756366008E+08, 1.367156396397101E+08, -5.091831417253599E+06,
2459797.500000000, A.D. 2022-Aug-06 00:00:00.0000, -1.183960750542507E+08, 1.279474111835655E+08, -1.502909498216876E+07,
2459804.500000000, A.D. 2022-Aug-13 00:00:00.0000, -1.321017591040318E+08, 1.180200518363420E+08, -2.483123312534327E+07,
2459811.500000000, A.D. 2022-Aug-20 00:00:00.0000, -1.446892540807731E+08, 1.070914829868466E+08, -3.442388847354489E+07,
2459818.500000000, A.D. 2022-Aug-27 00:00:00.0000, -1.561376490514486E+08, 9.531777452406281E+07, -4.374617790406130E+07,
2459825.500000000, A.D. 2022-Sep-03 00:00:00.0000, -1.664485024578354E+08, 8.284778392980492E+07, -5.275033458733552E+07,
2459832.500000000, A.D. 2022-Sep-10 00:00:00.0000, -1.756411628713062E+08, 6.981957389138067E+07, -6.140063349568994E+07,
2459839.500000000, A.D. 2022-Sep-17 00:00:00.0000, -1.837483082554643E+08, 5.635838839736098E+07, -6.967191375968823E+07,
2459846.500000000, A.D. 2022-Sep-24 00:00:00.0000, -1.908120039056150E+08, 4.257585953419519E+07, -7.754794847971128E+07,
2459853.500000000, A.D. 2022-Oct-01 00:00:00.0000, -1.968804114567024E+08, 2.857010188757478E+07, -8.501983727803724E+07,
2459860.500000000, A.D. 2022-Oct-08 00:00:00.0000, -2.020051644218171E+08, 1.442639075948664E+07, -9.208452830777445E+07,
2459867.500000000, A.D. 2022-Oct-15 00:00:00.0000, -2.062393576149715E+08, 2.181827308564335E+05, -9.874352296898051E+07,
2459874.500000000, A.D. 2022-Oct-22 00:00:00.0000, -2.096360658080700E+08, -1.399170154031205E+07, -1.050017798799641E+08,
2459881.500000000, A.D. 2022-Oct-29 00:00:00.0000, -2.122472930655574E+08, -2.814985701383506E+07, -1.108668123877693E+08,
2459888.500000000, A.D. 2022-Nov-05 00:00:00.0000, -2.141232592849542E+08, -4.221111135055400E+07, -1.163479611343712E+08,
2459895.500000000, A.D. 2022-Nov-12 00:00:00.0000, -2.153119459763105E+08, -5.613742306982253E+07, -1.214558177305615E+08,
2459902.500000000, A.D. 2022-Nov-19 00:00:00.0000, -2.158588357537627E+08, -6.989688404986086E+07, -1.262017750614180E+08,
2459909.500000000, A.D. 2022-Nov-26 00:00:00.0000, -2.158067924074650E+08, -8.346283421702780E+07, -1.305976813721756E+08,
2459916.500000000, A.D. 2022-Dec-03 00:00:00.0000, -2.151960403640738E+08, -9.681308670150876E+07, -1.346555779272286E+08,
2459923.500000000, A.D. 2022-Dec-10 00:00:00.0000, -2.140642123583370E+08, -1.099292564789692E+08, -1.383875030553095E+08,
2459930.500000000, A.D. 2022-Dec-17 00:00:00.0000, -2.124464421103338E+08, -1.227961829549064E+08, -1.418053483563981E+08,
2459937.500000000, A.D. 2022-Dec-24 00:00:00.0000, -2.103754849325557E+08, -1.354014360453430E+08, -1.449207555287542E+08,
2459944.500000000, A.D. 2022-Dec-31 00:00:00.0000, -2.078818536990666E+08, -1.477348951934942E+08, -1.477450445824398E+08,
2459951.500000000, A.D. 2023-Jan-07 00:00:00.0000, -2.049939614245715E+08, -1.597883905299980E+08, -1.502891660329722E+08,
2459958.500000000, A.D. 2023-Jan-14 00:00:00.0000, -2.017382664493156E+08, -1.715553967532173E+08, -1.525636710829686E+08,
2459965.500000000, A.D. 2023-Jan-21 00:00:00.0000, -1.981394168549284E+08, -1.830307749842080E+08, -1.545786954861550E+08,
2459972.500000000, A.D. 2023-Jan-28 00:00:00.0000, -1.942203878429104E+08, -1.942105558795275E+08, -1.563439539503637E+08,
2459979.500000000, A.D. 2023-Feb-04 00:00:00.0000, -1.900026107008640E+08, -2.050917550045269E+08, -1.578687421098888E+08,
2459986.500000000, A.D. 2023-Feb-11 00:00:00.0000, -1.855060942845261E+08, -2.156722155476080E+08, -1.591619438348093E+08,
2459993.500000000, A.D. 2023-Feb-18 00:00:00.0000, -1.807495387097950E+08, -2.259504748466394E+08, -1.602320423414809E+08,
2460000.500000000, A.D. 2023-Feb-25 00:00:00.0000, -1.757504409633637E+08, -2.359256512011358E+08, -1.610871339254139E+08,
2460007.500000000, A.D. 2023-Mar-04 00:00:00.0000, -1.705251925287628E+08, -2.455973478338988E+08, -1.617349434052064E+08,
2460014.500000000, A.D. 2023-Mar-11 00:00:00.0000, -1.650891693442447E+08, -2.549655713700922E+08, -1.621828405893728E+08,
2460021.500000000, A.D. 2023-Mar-18 00:00:00.0000, -1.594568144770048E+08, -2.640306626639503E+08, -1.624378572583518E+08,
2460028.500000000, A.D. 2023-Mar-25 00:00:00.0000, -1.536417137865578E+08, -2.727932381500377E+08, -1.625067043024977E+08,
2460035.500000000, A.D. 2023-Apr-01 00:00:00.0000, -1.476566646453376E+08, -2.812541397497303E+08, -1.623957887448124E+08,
2460042.500000000, A.D. 2023-Apr-08 00:00:00.0000, -1.415137388219939E+08, -2.894143907791948E+08, -1.621112302930497E+08,
2460049.500000000, A.D. 2023-Apr-15 00:00:00.0000, -1.352243423386886E+08, -2.972751578438104E+08, -1.616588771585968E+08,
2460056.500000000, A.D. 2023-Apr-22 00:00:00.0000, -1.287992709443224E+08, -3.048377208258410E+08, -1.610443214664525E+08,
2460063.500000000, A.D. 2023-Apr-29 00:00:00.0000, -1.222487588946910E+08, -3.121034479155893E+08, -1.602729142689707E+08,
2460070.500000000, A.D. 2023-May-06 00:00:00.0000, -1.155825231980793E+08, -3.190737732300931E+08, -1.593497798275985E+08,
2460077.500000000, A.D. 2023-May-13 00:00:00.0000, -1.088098046711588E+08, -3.257501773403140E+08, -1.582798291351889E+08,
2460084.500000000, A.D. 2023-May-20 00:00:00.0000, -1.019394059091213E+08, -3.321341707119378E+08, -1.570677727432066E+08,
2460091.500000000, A.D. 2023-May-27 00:00:00.0000, -9.497972628553206E+07, -3.382272796765010E+08, -1.557181329267681E+08,
2460098.500000000, A.D. 2023-Jun-03 00:00:00.0000, -8.793879420573880E+07, -3.440310345564809E+08, -1.542352552113373E+08,
2460105.500000000, A.D. 2023-Jun-10 00:00:00.0000, -8.082429684658743E+07, -3.495469596607506E+08, -1.526233192910266E+08,
2460112.500000000, A.D. 2023-Jun-17 00:00:00.0000, -7.364360752756643E+07, -3.547765649575881E+08, -1.508863493819389E+08,
2460119.500000000, A.D. 2023-Jun-24 00:00:00.0000, -6.640381060689126E+07, -3.597213391538154E+08, -1.490282240674558E+08,
2460126.500000000, A.D. 2023-Jul-01 00:00:00.0000, -5.911172384391326E+07, -3.643827431671687E+08, -1.470526856235920E+08,
2460133.500000000, A.D. 2023-Jul-08 00:00:00.0000, -5.177392007874450E+07, -3.687622030103567E+08, -1.449633486353889E+08,
2460140.500000000, A.D. 2023-Jul-15 00:00:00.0000, -4.439674966512184E+07, -3.728611047782746E+08, -1.427637080488822E+08,
$$EOE